OPS 6582 (TRANSIT 5B-5) 
1 00965U 64083D   21018.42388052  .00000016  00000-0  95563-5 0  9995
2 00965  90.0172 194.0576 0039081 295.7213 122.0921 13.56750514775792
OSCAR 7 (AO-7)          
1 07530U 74089B   21018.47570365 -.00000035  00000-0  64091-4 0  9995
2 07530 101.8339 353.2625 0012125 311.5431 162.3984 12.53646970112939
UOSAT 2 (UO-11)         
1 14781U 84021B   21018.42988119  .00000063  00000-0  13828-4 0  9995
2 14781  97.5899  25.6901 0007691 205.6589 154.4245 14.83238155963699
NOAA 9                  
1 15427U 84123A   21018.46885510 -.00000005  00000-0  20378-4 0  9996
2 15427  98.9733 339.9313 0014686 182.8849 284.2495 14.16119303863725
LUSAT (LO-19)           
1 20442U 90005G   21018.57419206  .00000013  00000-0  21164-4 0  9994
2 20442  98.7220 332.8460 0010765 239.6144 120.3975 14.32973653619428
ITAMSAT (IO-26)         
1 22826U 93061D   21018.31111216 -.00000018  00000-0  11085-4 0  9996
2 22826  98.9184  32.1068 0009989  98.7785 261.4528 14.30441316424768
RADIO ROSTO (RS-15)     
1 23439U 94085A   21018.37327970 -.00000037  00000-0  15882-3 0  9995
2 23439  64.8177 258.6856 0156043   2.2187 357.9400 11.27570087 73416
JAS-2 (FO-29)           
1 24278U 96046B   21018.19622140  .00000002  00000-0  37658-4 0  9990
2 24278  98.5844 105.9819 0350459 178.7059 181.5071 13.53101988205929
NOAA 15                 
1 25338U 98030A   21018.63446386  .00000012  00000-0  23412-4 0  9992
2 25338  98.6985  48.3757 0010338   2.8145 357.3092 14.26009070179899
TECHSAT 1B (GO-32)      
1 25397U 98043D   21018.43059330 -.00000001  00000-0  18933-4 0  9999
2 25397  98.7546 324.5376 0001929 125.8464 234.2894 14.23699457170143
ISS (ZARYA)             
1 25544U 98067A   21018.42396323  .00000576  00000-0  18407-4 0  9996
2 25544  51.6467   3.4695 0000261 274.2255 184.5001 15.49299389265386
ORSTED                  
1 25635U 99008B   21018.44548811  .00000132  00000-0  38703-4 0  9995
2 25635  96.4553 358.0941 0139406  25.0560 335.7319 14.48256887155731
PHASE 3D (AO-40)        
1 26609U 00072B   21017.69537938 -.00000111  00000-0  00000-0 0  9997
2 26609   9.1868 346.6474 7935528 217.0545  46.0629  1.25586115 92691
PCSAT (NO-44)           
1 26931U 01043C   21018.21876040  .00000004  00000-0  33261-4 0  9992
2 26931  67.0524 308.1574 0007421 271.8204  88.2047 14.30603038  7759
SAUDISAT 1C (SO-50)     
1 27607U 02058C   21018.40075428 -.00000009  00000-0  18973-4 0  9991
2 27607  64.5559  77.1731 0029357  88.0568 272.3896 14.75703254972435
CUTE-1 (CO-55)          
1 27844U 03031E   21018.28229459  .00000037  00000-0  36366-4 0  9993
2 27844  98.6817  28.7632 0010398 148.6673 211.5126 14.22282648910636
CUBESAT XI-IV (CO-57)   
1 27848U 03031J   21018.01988092  .00000026  00000-0  31720-4 0  9990
2 27848  98.6878  29.0729 0010057 161.6126 198.5417 14.21863323910437
MOZHAYETS 4 (RS-22)     
1 27939U 03042A   21018.39070146  .00000103  00000-0  27087-4 0  9993
2 27939  98.1176 156.7584 0013606  39.5203 320.7004 14.66933715925522
INMARSAT 4-F1           
1 28628U 05009A   21018.35528164 -.00000261  00000-0  00000-0 0  9996
2 28628   3.2831  29.4277 0002651 272.7331  87.1857  1.00271837 57855
NOAA 18                 
1 28654U 05018A   21018.70926689  .00000060  00000-0  57151-4 0  9997
2 28654  99.0160  82.8395 0013883 348.2668  11.8178 14.12574006807390
CUBESAT XI-V            
1 28895U 05043F   21018.32462128  .00000122  00000-0  32355-4 0  9991
2 28895  98.0358 155.0604 0015935 326.9811  33.0395 14.63854584812047
METOP-A                 
1 29499U 06044A   21018.69321609 -.00000009  00000-0  14864-4 0  9992
2 29499  98.4945  63.7771 0001267  70.4324  37.9642 14.21495750739469
CARTOSAT-2 (IRS-P7)     
1 29710U 07001B   21018.44835873  .00001338  00000-0  48071-4 0  9990
2 29710  97.8900  93.9795 0167190  46.5556 314.9447 15.18507962757859
FALCONSAT-3             
1 30776U 07006E   21018.22729155  .00003239  00000-0  82198-4 0  9990
2 30776  35.4355 344.6547 0003156 307.4350  52.6090 15.39333905769937
CAPE1                   
1 31130U 07012P   21018.37535164  .00000170  00000-0  46244-4 0  9996
2 31130  98.2208 319.4076 0097118  89.5035 271.7291 14.56619447730102
CARTOSAT-2A             
1 32783U 08021A   21018.32060813 -.00000141  00000-0 -12162-4 0  9993
2 32783  97.8949  80.6115 0013353  39.7307 320.4883 14.78703393686896
CUTE-1.7+APD II (CO-65) 
1 32785U 08021C   21018.10559206  .00000252  00000-0  32650-4 0  9995
2 32785  97.5949   2.9445 0013952 136.7664 223.4652 14.88612817689808
COMPASS-1               
1 32787U 08021E   21018.43838328  .00000218  00000-0  25578-4 0  9991
2 32787  97.5197  15.6407 0013789  73.7497 286.5240 14.93919267691133
AAUSAT-II               
1 32788U 08021F   21018.40974789  .00000969  00000-0  92670-4 0  9991
2 32788  97.4979  19.4473 0013039  58.3138 301.9353 14.95349594691437
DELFI-C3 (DO-64)        
1 32789U 08021G   21018.38939878  .00001582  00000-0  10556-3 0  9993
2 32789  97.3947  59.4445 0010476 301.8251  58.1957 15.08399404694208
SEEDS II (CO-66)        
1 32791U 08021J   21017.93360890  .00000333  00000-0  38725-4 0  9990
2 32791  97.5575   8.8202 0014673 105.9831 254.3005 14.91248961690425
YUBILEINY (RS-30)       
1 32953U 08025A   21018.36805342  .00000028  00000-0  12906-3 0  9991
2 32953  82.5049 144.2773 0018567 305.0299  54.9039 12.43099440574333
FENGYUN 3A              
1 32958U 08026A   21018.39940042  .00000004  00000-0  21498-4 0  9998
2 32958  98.4316 359.2598 0009847  75.7037 284.5232 14.18645088655195
PRISM (HITOMI)          
1 33493U 09002B   21018.38989494  .00000331  00000-0  34015-4 0  9993
2 33493  98.1697 333.9125 0015909  64.5935 295.6930 14.97378348651860
STARS (KUKAI)           
1 33498U 09002G   21018.37252773  .00000199  00000-0  34200-4 0  9998
2 33498  98.2347 255.0183 0012067 106.4104 253.8434 14.79262209645273
KKS-1 (KISEKI)          
1 33499U 09002H   21018.41229104  .00000090  00000-0  21162-4 0  9999
2 33499  98.2891 244.8361 0009566 152.6386 207.5328 14.75607684644281
NOAA 19                 
1 33591U 09005A   21018.65867896 -.00000011  00000-0  19592-4 0  9995
2 33591  99.1928  35.5782 0013829 189.0203 171.0721 14.12448844615772
SWISSCUBE               
1 35932U 09051B   21018.45720230  .00000115  00000-0  37021-4 0  9996
2 35932  98.6067 213.6849 0007512 180.1555 179.9641 14.56477440601122
BEESAT-1                
1 35933U 09051C   21018.42911967  .00000095  00000-0  32460-4 0  9992
2 35933  98.6044 215.5118 0005475 190.7797 169.3284 14.56542693601195
ITUPSAT1                
1 35935U 09051E   21018.27549962  .00000084  00000-0  30343-4 0  9995
2 35935  98.6149 215.5198 0007779 194.4572 165.6403 14.55680771600923
XIWANG-1 (HOPE-1)       
1 36122U 09072B   21018.19346281 -.00000039  00000-0  95613-5 0  9990
2 36122 100.1132   5.2035 0008185  89.4022 270.8027 13.16358631533123
CARTOSAT-2B             
1 36795U 10035A   21018.42433484 -.00000840  00000-0 -10744-3 0  9996
2 36795  97.8915  80.1612 0015323 107.2622 253.0291 14.78666218567956
TISAT 1                 
1 36799U 10035E   21018.45963562  .00000488  00000-0  54822-4 0  9990
2 36799  98.2019 203.2106 0011921 351.1833   8.9173 14.91573174570975
FENGYUN 3B              
1 37214U 10059A   21018.47520572  .00000010  00000-0  28622-4 0  9991
2 37214  99.0693   9.7688 0017402  21.4234 130.2298 14.15972516528060
JUGNU                   
1 37839U 11058B   21018.42655734  .00000318  00000-0  27315-4 0  9997
2 37839  19.9627  59.0597 0018681 238.1467 149.8312 14.12700783479221
SRMSAT                  
1 37841U 11058D   21018.46886417  .00000303  00000-0  21390-4 0  9999
2 37841  19.9715 127.5779 0011993  85.7070 350.0261 14.10683285478526
M-CUBED & EXP-1 PRIME   
1 37855U 11061F   21017.88184129  .00001388  00000-0  74700-4 0  9991
2 37855 101.7265 223.1939 0168604 158.3267 202.5192 15.07095269503966
HORYU-2                 
1 38340U 12025D   21018.05544057  .00000173  00000-0  32979-4 0  9995
2 38340  98.2535  82.4683 0012647  78.2866 281.9761 14.75961727456200
METOP-B                 
1 38771U 12049A   21018.68481326 -.00000009  00000-0  15933-4 0  9997
2 38771  98.7019  80.8852 0002479  97.6631  61.3093 14.21483363432597
SARAL                   
1 39086U 13009A   21018.44902652 -.00000022  00000-0  79950-5 0  9993
2 39086  98.5412 206.7485 0001159  43.5767 316.5508 14.32042314412770
AAUSAT 3                
1 39087U 13009B   21018.28249281  .00000110  00000-0  52630-4 0  9990
2 39087  98.4346 224.8628 0012815   6.5733 353.5626 14.35888586413640
STRAND-1                
1 39090U 13009E   21018.44263336  .00000025  00000-0  23674-4 0  9990
2 39090  98.4365 224.0717 0009349  12.1107 348.0302 14.35164283413520
BRITE-AUSTRIA           
1 39091U 13009F   21018.42825715 -.00000005  00000-0  13390-4 0  9997
2 39091  98.4362 223.1879 0010851  18.0882 342.0687 14.35171406413550
UNIBRITE                
1 39092U 13009G   21018.05509337  .00000001  00000-0  15308-4 0  9992
2 39092  98.4390 222.5123 0009638  14.6621 345.4842 14.35043189413467
SOMP                    
1 39134U 13015E   21018.19588863  .00001298  00000-0  65726-4 0  9990
2 39134  64.8632 300.8395 0012435 219.6973 140.3246 15.21884000428341
BEESAT-3                
1 39135U 13015F   21018.28052108  .00001030  00000-0  58674-4 0  9997
2 39135  64.8682 327.3413 0017545 208.0963 151.9219 15.18835651427835
BEESAT-2                
1 39136U 13015G   21018.28231771  .00001080  00000-0  61837-4 0  9993
2 39136  64.8743 333.1197 0029229 263.3872  96.3927 15.18212688427717
NEE-01 PEGASO           
1 39151U 13018B   21018.23059207  .00000166  00000-0  28714-4 0  9991
2 39151  97.9762 121.6420 0018175 122.7750 237.5216 14.80271956417442
CUBEBUG-1 (CAPITAN BETO)
1 39153U 13018D   21018.23885525  .00000221  00000-0  35452-4 0  9992
2 39153  97.9888 124.5088 0018124 118.6448 241.6589 14.80838143417498
